ONEWEB-0435             
1 51632U 22012L   25061.22989398 -.00000129  00000+0 -40478-3 0  9997
2 51632  87.8882 130.3572 0002392 102.9597 257.1797 13.10375864147503
ONEWEB-0436             
1 51633U 22012M   25061.57267618 -.00000029  00000+0 -10910-3 0  9997
2 51633  87.9022  99.8013 0002219  93.2420 266.8966 13.17647969151577
ONEWEB-0438             
1 51634U 22012N   25061.59507187 -.00000667  00000+0 -19465-2 0  9999
2 51634  87.8875 130.2853 0001784 108.4656 251.6666 13.10372433147580
ONEWEB-0439             
1 51635U 22012P   25061.59839394 -.00000665  00000+0 -19428-2 0  9995
2 51635  87.8878 130.2715 0001990 104.0810 256.0539 13.10372320147565
ONEWEB-0442             
1 51636U 22012Q   25061.56508002  .00000003  00000+0 -26396-4 0  9991
2 51636  87.9024  99.8468 0001267 100.8717 259.2557 13.17648254151561
ONEWEB-0443             
1 51637U 22012R   25061.58448382 -.00000013  00000+0 -67895-4 0  9999
2 51637  87.9027  99.8556 0001944 106.6315 253.5030 13.17647257151614
ONEWEB-0444             
1 51638U 22012S   25061.58843614 -.00000421  00000+0 -12437-2 0  9990
2 51638  87.8873 130.2823 0002104 105.3891 254.7469 13.10370268147571
ONEWEB-0445             
1 51639U 22012T   25061.22823187 -.00000218  00000+0 -66116-3 0  9993
2 51639  87.8872 130.3137 0001752 100.1206 260.0119 13.10375710147536
